STARLINK-31467          
1 59235U 24049E   26068.54044499 -.00000571  00000+0 -11234-4 0  9993
2 59235  43.0021 144.3464 0001386 274.4787  85.5906 15.27573653112381
FLOCK 4G-3              
1 62639U 25009AG  26068.80174065  .00011494  00000+0  43389-3 0  9993
2 62639  97.4062 151.4068 0001320 293.2042  66.9058 15.27179310 63727
